SOYUZ-MS 25             
1 59294U 24055A   24112.49401555  .00034948  00000+0  60493-3 0  9990
2 59294  51.6375 236.5220 0004655  83.3647 276.7872 15.50580662449755
STARLINK-31463          
1 59296U 24056A   24113.16667824 -.02022064  00000+0 -51155-1 0  9994
2 59296  42.9993 190.1609 0001023 259.8937 348.9082 15.42543389  5681
STARLINK-31487          
1 59297U 24056B   24113.16667824  .00019638  00000+0  36079-3 0  9994
2 59297  42.9993 190.1140 0001549 257.2526  10.6875 15.48868449  5788
STARLINK-31386          
1 59298U 24056C   24112.91667824 -.00099885  00000+0 -18208-2 0  9994
2 59298  42.9997 191.5773 0001394 263.4430  46.8434 15.48950117  5439
STARLINK-31409          
1 59299U 24056D   24112.91667824 -.00034226  00000+0 -61526-3 0  9995
2 59299  42.9997 191.5676 0002221 290.2599  23.8612 15.48921695  5809
STARLINK-31489          
1 59300U 24056E   24112.91667824 -.00035447  00000+0 -63747-3 0  9991
2 59300  42.9997 191.5628 0002110 283.6619  32.3715 15.48924534  5708
STARLINK-31502          
1 59301U 24056F   24112.91667824 -.00032738  00000+0 -58839-3 0  9998
2 59301  42.9997 191.5582 0001624 258.4829  59.4818 15.48911196  5434
STARLINK-31447          
1 59302U 24056G   24113.16667824 -.02146364  00000+0 -47404-1 0  9994
2 59302  42.9994 190.0988 0001276 269.1296   4.5593 15.46704466  5682
STARLINK-31504          
1 59303U 24056H   24113.16667824  .00057864  00000+0  10466-2 0  9996
2 59303  42.9993 190.0897 0001284 276.5449   0.9699 15.48856578  5683
STARLINK-31474          
1 59304U 24056J   24113.16667824  .00039244  00000+0  71275-3 0  9995
2 59304  42.9993 190.0849 0001631 261.4074  17.9960 15.48884719  5478
STARLINK-31500          
1 59305U 24056K   24113.16667824  .00045673  00000+0  82825-3 0  9992
2 59305  42.9993 190.0796 0002181 269.7083  11.6321 15.48870063  5628
STARLINK-31480          
1 59306U 24056L   24113.16667824  .00075238  00000+0  13561-2 0  9993
2 59306  42.9993 190.0750 0001809 268.7168  14.5369 15.48854394  5520
STARLINK-31282          
1 59307U 24056M   24112.91667824 -.00013216  00000+0 -23329-3 0  9990
2 59307  42.9996 191.5287 0002154 274.1406  55.3119 15.48912110  5702
STARLINK-31485          
1 59308U 24056N   24112.91667824 -.00015399  00000+0 -27290-3 0  9996
2 59308  42.9996 191.5239 0001947 279.7834  51.5849 15.48913636  5707
STARLINK-31455          
1 59309U 24056P   24113.16667824 -.02138244  00000+0 -44280-1 0  9998
2 59309  42.9992 190.0606 0001498 271.4070  17.5138 15.48517398  5470
STARLINK-31475          
1 59310U 24056Q   24113.16667824 -.02148702  00000+0 -48221-1 0  9999
2 59310  42.9992 190.0623 0001748 287.7212   0.4401 15.46245688  5783
STARLINK-31469          
1 59311U 24056R   24113.16667824  .00836361  00000+0  49363-2 0  9990
2 59311  42.9989 188.9371 0002604 349.7197  34.3241 15.74998877  5794
STARLINK-31445          
1 59312U 24056S   24112.91667824 -.00053426  00000+0 -96624-3 0  9991
2 59312  42.9996 191.5044 0002066 275.0664  63.9699 15.48920998  5708
STARLINK-31495          
1 59313U 24056T   24112.91667824 -.00184195  00000+0 -33884-2 0  9998
2 59313  42.9996 191.4998 0001418 272.6150  68.2479 15.49039931  5702
STARLINK-31477          
1 59314U 24056U   24112.91667824 -.00017972  00000+0 -31964-3 0  9995
2 59314  42.9996 191.4948 0002064 269.1431  73.7243 15.48912083  5706
STARLINK-31446          
1 59315U 24056V   24113.16667824  .00054785  00000+0  99125-3 0  9998
2 59315  42.9992 190.0314 0001806 252.7009  47.7925 15.48866841  5682
STARLINK-31479          
1 59316U 24056W   24113.16667824  .00036049  00000+0  65565-3 0  9993
2 59316  42.9993 190.0269 0001549 266.4292  35.9764 15.48877460  5682
STARLINK-31349          
1 59317U 24056X   24113.16667824  .00024878  00000+0  45480-3 0  9995
2 59317  42.9992 190.0220 0001733 261.5693  42.7429 15.48889737  5735
STARLINK-31464          
1 59318U 24056Y   24112.91667824 -.00077703  00000+0 -14117-2 0  9997
2 59318  42.9996 191.4753 0001993 266.8276  83.7047 15.48935832  5705
STARLINK-31402          
1 59320U 24057A   24113.25001157 -.00119071  00000+0 -21769-2 0  9996
2 59320  43.0001 151.4630 0000624 254.7601 170.7828 15.48953621  5536
STARLINK-31578          
1 59321U 24057B   24112.91667824 -.00031444  00000+0 -54794-3 0  9990
2 59321  42.9999 153.5868 0001475 251.0239  38.5424 15.49766940  5483
STARLINK-31530          
1 59322U 24057C   24112.91667824 -.02051300  00000+0 -48798-1 0  9991
2 59322  42.9998 153.6071 0001656 222.6070  58.7844 15.44390949  5496
STARLINK-31565          
1 59323U 24057D   24113.12162156  .00052000  00000+0  90993-3 0  9994
2 59323  42.9986 152.3776 0001207 326.1799  33.8984 15.49836816  5450
STARLINK-31570          
1 59324U 24057E   24113.12196315  .00055760  00000+0  97327-3 0  9993
2 59324  42.9993 152.3782 0001429 270.0235  90.0461 15.49881999  5451
STARLINK-31611          
1 59325U 24057F   24113.12125986  .00014869  00000+0  26564-3 0  9990
2 59325  42.9989 152.3728 0000698  15.3853 344.7028 15.49837778  5454
